OBJECT_NAME,OBJECT_ID,EPOCH,MEAN_MOTION,ECCENTRICITY,INCLINATION,RA_OF_ASC_NODE,ARG_OF_PERICENTER,MEAN_ANOMALY,EPHEMERIS_TYPE,CLASSIFICATION_TYPE,NORAD_CAT_ID,ELEMENT_SET_NO,REV_AT_EPOCH,BSTAR,MEAN_MOTION_DOT,MEAN_MOTION_DDOT
GUOWANG TEST OBJECT A,2026-120A,2026-06-07T11:06:12.288672,15.38803685,.00095994,54.9967,71.5399,294.3963,65.6063,0,U,69320,999,119,.24095813E-3,.9002E-4,0
GUOWANG TEST OBJECT B,2026-120B,2026-06-11T00:46:53.506272,15.39043592,.0009365,54.9985,55.4407,313.0317,46.9926,0,U,69321,999,174,.260805E-3,.9856E-4,0
GUOWANG TEST OBJECT C,2026-120C,2026-06-07T21:56:00.773376,15.39284097,.00098504,54.9968,69.4792,309.3319,50.6835,0,U,69322,999,126,.41735581E-3,.16153E-3,0
GUOWANG TEST OBJECT D,2026-120D,2026-06-11T05:22:50.409120,15.38912611,.00104865,54.9983,54.5451,328.4140,31.6258,0,U,69323,999,177,.10674889E-3,.3781E-4,0
QIANFAN-163,2026-121A,2026-06-07T22:57:09.243936,13.60351284,.00192,89.0167,301.4498,214.2671,145.7248,0,U,69325,999,90,.25988E-4,.32E-6,0
QIANFAN-164,2026-121B,2026-06-11T09:53:52.001952,13.60355109,.00193829,89.0157,301.0998,205.3125,154.7084,0,U,69326,999,137,.13228336E-3,.112E-5,0
SZ-22 MODULE,2025-272C,2026-06-10T23:11:31.096896,15.59968779,.00070706,41.4811,359.9208,34.2505,325.8789,0,U,69328,999,235,.23213204E-3,.19011E-3,0
STARLINK-37733,2026-122A,2026-06-11T14:00:01.999872,15.84697312,.00014544,97.2836,191.6955,102.2828,198.0288,0,U,69329,999,245,-.11998647E-1,-.2388698E-1,0
STARLINK-37772,2026-122B,2026-06-11T14:00:01.999872,15.87543912,.00013009,97.2837,191.7045,102.4270,217.8315,0,U,69330,999,240,-.10842307E-1,-.2405842E-1,0
STARLINK-37768,2026-122C,2026-06-11T14:00:01.999872,15.87840762,.00011586,97.2838,191.7068,68.3167,257.2084,0,U,69331,999,240,-.68302981E-2,-.1603376E-1,0
STARLINK-37833,2026-122D,2026-06-11T14:00:01.999872,15.87837475,.00012968,97.2837,191.7089,93.7016,237.2730,0,U,69332,999,240,-.10584059E-1,-.2387154E-1,0
STARLINK-37818,2026-122E,2026-06-11T14:00:01.999872,15.85649666,.00012559,97.2842,191.7076,92.2654,235.7981,0,U,69333,999,245,-.10649457E-1,-.2191517E-1,0
STARLINK-37868,2026-122F,2026-06-11T14:00:01.999872,15.88503444,.0001076,97.2843,191.7115,87.3482,249.7338,0,U,69334,999,245,-.46652127E-2,-.1135112E-1,0
STARLINK-37877,2026-122G,2026-06-11T14:00:01.999872,15.88494156,.00011088,97.2843,191.7117,88.9756,248.9418,0,U,69335,999,245,-.46703393E-2,-.1135764E-1,0
STARLINK-37791,2026-122H,2026-06-11T14:00:01.999872,15.88466724,.00011161,97.2844,191.7132,74.4657,266.3408,0,U,69336,999,245,-.25910463E-2,-.663907E-2,0
STARLINK-37765,2026-122J,2026-06-11T14:00:01.999872,15.88904026,.00009587,97.2847,191.7168,79.7428,269.6723,0,U,69337,999,250,-.25438097E-2,-.666E-2,0
STARLINK-37788,2026-122K,2026-06-11T14:00:01.999872,15.88457671,.00009627,97.2851,191.7198,81.5608,275.4506,0,U,69338,999,245,-.25358704E-2,-.650409E-2,0
STARLINK-37743,2026-122L,2026-06-11T14:00:01.999872,15.88988974,.00011085,97.2851,191.7208,96.1322,262.7641,0,U,69339,999,245,-.10127848E-1,-.2414596E-1,0
STARLINK-37780,2026-122M,2026-06-11T14:00:01.999872,15.89454516,.00011389,97.2853,191.7225,96.1572,265.1664,0,U,69340,999,250,-.97193832E-2,-.2777611E-1,.1998055E-2
STARLINK-37781,2026-122N,2026-06-11T14:00:01.999872,15.87612616,.00012148,97.2851,191.7213,90.5602,269.1150,0,U,69341,999,245,-.1046731E-1,-.2343138E-1,0
STARLINK-37782,2026-122P,2026-06-11T14:00:01.999872,15.90138450,.00010882,97.2853,191.7263,88.3488,282.9364,0,U,69342,999,245,-.42706825E-2,-.1272923E-1,.46219465E-3
STARLINK-37776,2026-122Q,2026-06-11T14:00:01.999872,15.90294745,.00010749,97.2854,191.7274,84.9781,289.8053,0,U,69343,999,245,-.42454222E-2,-.1275363E-1,.46454706E-3
STARLINK-37786,2026-122R,2026-06-11T14:00:01.999872,15.90749684,.00010673,97.2861,191.7313,95.0291,288.5925,0,U,69344,999,245,-.41156052E-2,-.1265193E-1,.4597597E-3
STARLINK-37785,2026-122S,2026-06-11T14:00:01.999872,15.90735060,.00010367,97.2858,191.7315,86.9409,297.5006,0,U,69345,999,245,-.41012065E-2,-.1259878E-1,.45612675E-3
STARLINK-37773,2026-122T,2026-06-11T14:00:01.999872,15.91375840,.00011531,97.2861,191.7337,94.9167,293.9751,0,U,69346,999,250,-.37846356E-2,-.1201626E-1,.42050142E-3
STARLINK-37744,2026-122U,2026-06-11T14:00:01.999872,15.91805097,.00010505,97.2862,191.7355,102.4883,290.9612,0,U,69347,999,245,-.71484126E-2,-.2303579E-1,.14229441E-2
STARLINK-37775,2026-122V,2026-06-11T14:00:01.999872,15.91476053,.00010852,97.2865,191.7368,86.5458,308.6027,0,U,69348,999,245,-.50028827E-2,-.1592016E-1,.70857816E-3
STARLINK-37777,2026-122W,2026-06-11T14:00:01.999872,15.92306100,.00012513,97.2867,191.7388,89.4943,310.8266,0,U,69349,999,245,-.80142325E-2,-.2647575E-1,.18766538E-2
