GUOWANG TEST OBJECT A   
1 69320U 26120A   26158.46264223  .00009002  00000+0  24096-3 0  9996
2 69320  54.9967  71.5399 0009599 294.3963  65.6063 15.38803685  1198
GUOWANG TEST OBJECT B   
1 69321U 26120B   26162.03256373  .00009856  00000+0  26081-3 0  9995
2 69321  54.9985  55.4407 0009365 313.0317  46.9926 15.39043592  1748
GUOWANG TEST OBJECT C   
1 69322U 26120C   26158.91389784  .00016153  00000+0  41736-3 0  9993
2 69322  54.9968  69.4792 0009850 309.3319  50.6835 15.39284097  1266
GUOWANG TEST OBJECT D   
1 69323U 26120D   26162.22419455  .00003781  00000+0  10675-3 0  9993
2 69323  54.9983  54.5451 0010486 328.4140  31.6258 15.38912611  1775
QIANFAN-163             
1 69325U 26121A   26158.95635699  .00000032  00000+0  25988-4 0  9991
2 69325  89.0167 301.4498 0019200 214.2671 145.7248 13.60351284   905
QIANFAN-164             
1 69326U 26121B   26162.41240743  .00000112  00000+0  13228-3 0  9992
2 69326  89.0157 301.0998 0019382 205.3125 154.7084 13.60355109  1372
SZ-22 MODULE            
1 69328U 25272C   26161.96633214  .00019011  00000+0  23213-3 0  9991
2 69328  41.4811 359.9208 0007070  34.2505 325.8789 15.59968779  2356
STARLINK-37733          
1 69329U 26122A   26162.58335648 -.02388698  00000+0 -11999-1 0  9996
2 69329  97.2836 191.6955 0001454 102.2828 198.0288 15.84697312  2452
STARLINK-37772          
1 69330U 26122B   26162.58335648 -.02405842  00000+0 -10842-1 0  9995
2 69330  97.2837 191.7045 0001300 102.4270 217.8315 15.87543912  2404
STARLINK-37768          
1 69331U 26122C   26162.58335648 -.01603376  00000+0 -68303-2 0  9993
2 69331  97.2838 191.7068 0001158  68.3167 257.2084 15.87840762  2401
STARLINK-37833          
1 69332U 26122D   26162.58335648 -.02387154  00000+0 -10584-1 0  9995
2 69332  97.2837 191.7089 0001296  93.7016 237.2730 15.87837475  2405
STARLINK-37818          
1 69333U 26122E   26162.58335648 -.02191517  00000+0 -10649-1 0  9994
2 69333  97.2842 191.7076 0001255  92.2654 235.7981 15.85649666  2452
STARLINK-37868          
1 69334U 26122F   26162.58335648 -.01135112  00000+0 -46652-2 0  9997
2 69334  97.2843 191.7115 0001076  87.3482 249.7338 15.88503444  2450
STARLINK-37877          
1 69335U 26122G   26162.58335648 -.01135764  00000+0 -46703-2 0  9998
2 69335  97.2843 191.7117 0001108  88.9756 248.9418 15.88494156  2459
STARLINK-37791          
1 69336U 26122H   26162.58335648 -.00663907  00000+0 -25910-2 0  9990
2 69336  97.2844 191.7132 0001116  74.4657 266.3408 15.88466724  2450
STARLINK-37765          
1 69337U 26122J   26162.58335648 -.00666000  00000+0 -25438-2 0  9993
2 69337  97.2847 191.7168 0000958  79.7428 269.6723 15.88904026  2504
STARLINK-37788          
1 69338U 26122K   26162.58335648 -.00650409  00000+0 -25359-2 0  9992
2 69338  97.2851 191.7198 0000962  81.5608 275.4506 15.88457671  2456
STARLINK-37743          
1 69339U 26122L   26162.58335648 -.02414596  00000+0 -10128-1 0  9997
2 69339  97.2851 191.7208 0001108  96.1322 262.7641 15.88988974  2451
STARLINK-37780          
1 69340U 26122M   26162.58335648 -.02777611  19981-2 -97194-2 0  9999
2 69340  97.2853 191.7225 0001138  96.1572 265.1664 15.89454516  2503
STARLINK-37781          
1 69341U 26122N   26162.58335648 -.02343138  00000+0 -10467-1 0  9999
2 69341  97.2851 191.7213 0001214  90.5602 269.1150 15.87612616  2459
STARLINK-37782          
1 69342U 26122P   26162.58335648 -.01272923  46219-3 -42707-2 0  9991
2 69342  97.2853 191.7263 0001088  88.3488 282.9364 15.90138450  2456
STARLINK-37776          
1 69343U 26122Q   26162.58335648 -.01275363  46455-3 -42454-2 0  9994
2 69343  97.2854 191.7274 0001074  84.9781 289.8053 15.90294745  2454
STARLINK-37786          
1 69344U 26122R   26162.58335648 -.01265193  45976-3 -41156-2 0  9990
2 69344  97.2861 191.7313 0001067  95.0291 288.5925 15.90749684  2459
STARLINK-37785          
1 69345U 26122S   26162.58335648 -.01259878  45613-3 -41012-2 0  9993
2 69345  97.2858 191.7315 0001036  86.9409 297.5006 15.90735060  2457
STARLINK-37773          
1 69346U 26122T   26162.58335648 -.01201626  42050-3 -37846-2 0  9994
2 69346  97.2861 191.7337 0001153  94.9167 293.9751 15.91375840  2506
STARLINK-37744          
1 69347U 26122U   26162.58335648 -.02303579  14229-2 -71484-2 0  9998
2 69347  97.2862 191.7355 0001050 102.4883 290.9612 15.91805097  2453
STARLINK-37775          
1 69348U 26122V   26162.58335648 -.01592016  70858-3 -50029-2 0  9997
2 69348  97.2865 191.7368 0001085  86.5458 308.6027 15.91476053  2452
STARLINK-37777          
1 69349U 26122W   26162.58335648 -.02647575  18767-2 -80142-2 0  9999
2 69349  97.2867 191.7388 0001251  89.4943 310.8266 15.92306100  2459
